      2.10          N: GNSS NAV DATA                        RINEX VERSION / TYPE
fic2rin                                 10/04/2021 00:17:31 PGM / RUN BY / DATE
                                                            END OF HEADER
 2 21 10  3  9 59 44.0-6.355610676110e-04-1.932676241267e-12 0.000000000000e+00
    1.500000000000e+01 8.262500000000e+01 4.555189741937e-09 1.656512329485e+00
    3.917142748833e-06 2.031961118337e-02 6.441026926041e-06 5.153766796112e+03
    3.598400000000e+04 1.844018697739e-07 3.824511415966e-01-4.451721906662e-07
    9.643172503813e-01 2.519062500000e+02-1.489729741086e+00-8.059978587603e-09
    3.446572134992e-10 1.000000000000e+00 2.178000000000e+03 0.000000000000e+00
    2.400000000000e+00 0.000000000000e+00-1.769512891769e-08 1.500000000000e+01
    3.570000000000e+04 4.000000000000e+00
 2 21 10  3 11 59 44.0-6.355750374496e-04-1.932676241267e-12 0.000000000000e+00
    2.200000000000e+01 1.055000000000e+02 4.470186201198e-09 2.706511144001e+00
    5.418434739113e-06 2.031770453323e-02 6.217509508133e-06 5.153772624969e+03
    4.318400000000e+04 3.036111593246e-07 3.823942721192e-01-1.918524503708e-07
    9.643200035931e-01 2.540312500000e+02-1.489606621901e+00-7.922472859938e-09
    3.200133298397e-10 1.000000000000e+00 2.178000000000e+03 0.000000000000e+00
    2.400000000000e+00 0.000000000000e+00-1.769512891769e-08 2.200000000000e+01
    3.600000000000e+04 4.000000000000e+00
15 21 10  3 11 59 44.0-1.166658475995e-04 2.728484105319e-12 0.000000000000e+00
    2.000000000000e+00-9.115625000000e+01 4.882703384195e-09-2.495474280143e+00
   -4.708766937256e-06 1.375207654200e-02 1.089274883270e-05 5.153691328049e+03
    4.318400000000e+04 1.695007085800e-07 2.432297415339e+00-6.332993507385e-08
    9.296382682168e-01 1.499687500000e+02 1.034562819774e+00-7.991404302637e-09
   -6.643133856047e-11 1.000000000000e+00 2.178000000000e+03 0.000000000000e+00
    2.400000000000e+00 0.000000000000e+00-1.071020960808e-08 2.000000000000e+00
    3.600000000000e+04 4.000000000000e+00
16 21 10  3 11 59 44.0-4.008794203401e-04-6.366462912410e-12 0.000000000000e+00
    2.100000000000e+01-3.106250000000e+01 4.510902182897e-09-7.217905452906e-01
   -1.396983861923e-06 1.226235367358e-02 5.867332220078e-06 5.153761453629e+03
    4.318400000000e+04 1.434236764908e-07-1.545987979142e+00 2.216547727585e-07
    9.716523669812e-01 2.687812500000e+02 6.808791751563e-01-8.234985877359e-09
   -3.757299363743e-10 1.000000000000e+00 2.178000000000e+03 0.000000000000e+00
    2.400000000000e+00 0.000000000000e+00-1.024454832077e-08 2.100000000000e+01
    3.600000000000e+04 4.000000000000e+00
17 21 10  3 11 59 44.0 5.137501284480e-04 5.684341886081e-12 0.000000000000e+00
    1.200000000000e+01 4.421875000000e+01 3.844088693152e-09-1.552112792894e+00
    2.572312951088e-06 1.360324071720e-02 1.230835914612e-05 5.153680128098e+03
    4.318400000000e+04-2.793967723846e-08-5.277922151557e-01 3.408640623093e-07
    9.813141041056e-01 1.538125000000e+02-1.553159425930e+00-7.639603934454e-09
   -1.153619481453e-10 1.000000000000e+00 2.178000000000e+03 0.000000000000e+00
    2.400000000000e+00 0.000000000000e+00-1.117587089539e-08 1.200000000000e+01
    3.600000000000e+04 4.000000000000e+00
 1 21 10  3 12  0  0.0 5.499431863427e-04-1.091393642128e-11 0.000000000000e+00
    8.500000000000e+01 8.671875000000e+01 4.137315192927e-09 2.456929759318e+00
    4.364177584648e-06 1.105211116374e-02 5.312263965607e-06 5.153674495697e+03
    4.320000000000e+04-9.313225746155e-09 4.688289084459e-01-2.328306436539e-07
    9.857679596609e-01 2.898125000000e+02 8.891712462829e-01-7.877828143163e-09
    4.418041172006e-10 1.000000000000e+00 2.178000000000e+03 0.000000000000e+00
    2.400000000000e+00 0.000000000000e+00 5.122274160385e-09 8.500000000000e+01
    3.600000000000e+04 4.000000000000e+00
 3 21 10  3 12  0  0.0-3.113131970167e-04-1.386979420204e-11 0.000000000000e+00
    2.900000000000e+01-7.737500000000e+01 4.658408327120e-09 1.318869903448e+00
   -4.068017005920e-06 3.896916750818e-03 3.892928361893e-06 5.153760036469e+03
    4.320000000000e+04-1.247972249985e-07 1.505375418803e+00 9.126961231232e-08
    9.704494211480e-01 3.090625000000e+02 9.899171420453e-01-8.379634759709e-09
   -3.132273328900e-10 1.000000000000e+00 2.178000000000e+03 0.000000000000e+00
    2.400000000000e+00 0.000000000000e+00 1.862645149231e-09 2.900000000000e+01
    3.600000000000e+04 4.000000000000e+00
10 21 10  3 12  0  0.0-2.160645090044e-04-7.958078640513e-12 0.000000000000e+00
    2.000000000000e+01-6.525000000000e+01 4.686623788121e-09 5.001303082748e-01
   -3.369525074959e-06 6.987349130213e-03 3.365799784660e-06 5.153677631378e+03
    4.320000000000e+04 7.450580596924e-09 1.502541382217e+00 7.450580596924e-09
    9.703011266052e-01 3.173125000000e+02-2.584405937692e+00-8.477138821144e-09
   -3.575148919303e-10 1.000000000000e+00 2.178000000000e+03 0.000000000000e+00
    2.400000000000e+00 0.000000000000e+00 2.328306436539e-09 2.000000000000e+01
    3.600000000000e+04 4.000000000000e+00
 8 21 10  3 12  0  0.0-3.874208778143e-05-1.477928890381e-12 0.000000000000e+00
    1.700000000000e+01 2.525000000000e+01 4.193746114930e-09-1.494293372551e+00
    1.026317477226e-06 6.554410327226e-03 1.120381057262e-05 5.153661373138e+03
    4.320000000000e+04-1.862645149231e-09-6.076407343099e-01-1.136213541031e-07
    9.663124497408e-01 1.668750000000e+02 5.502346497675e-02-7.786752920943e-09
   -9.036090675161e-11 1.000000000000e+00 2.178000000000e+03 0.000000000000e+00
    2.400000000000e+00 0.000000000000e+00 5.122274160385e-09 1.700000000000e+01
    3.600000000000e+04 4.000000000000e+00
 5 21 10  3 12  0  0.0-5.643302574754e-05-1.250555214938e-12 0.000000000000e+00
    6.900000000000e+01-6.793750000000e+01 4.954134931034e-09-1.210626180948e+00
   -3.449618816376e-06 6.088702124543e-03 2.669170498848e-06 5.153593486786e+03
    4.320000000000e+04 1.341104507446e-07 1.466781591787e+00 1.434236764908e-07
    9.574274021572e-01 3.257187500000e+02 1.001419873797e+00-8.531069639008e-09
   -2.814402945465e-10 1.000000000000e+00 2.178000000000e+03 0.000000000000e+00
    2.400000000000e+00 0.000000000000e+00-1.117587089539e-08 6.900000000000e+01
    3.600000000000e+04 4.000000000000e+00
 6 21 10  3 12  0  0.0 8.676154538989e-05 7.844391802792e-12 0.000000000000e+00
    7.200000000000e+01 8.806250000000e+01 4.243748197718e-09 2.816735299166e+00
    4.677101969719e-06 2.225748146884e-03 5.602836608887e-06 5.153586668015e+03
    4.320000000000e+04 8.381903171539e-08 4.605781206989e-01 1.676380634308e-08
    9.851912817428e-01 2.834375000000e+02-1.026153590685e+00-8.074979212439e-09
    4.289464387695e-10 1.000000000000e+00 2.178000000000e+03 0.000000000000e+00
    2.400000000000e+00 0.000000000000e+00 3.725290298462e-09 7.200000000000e+01
    3.600000000000e+04 4.000000000000e+00
 7 21 10  3 12  0  0.0 2.561616711318e-04 6.593836587854e-12 0.000000000000e+00
    7.100000000000e+01 5.425000000000e+01 4.911276002930e-09 1.835335557299e+00
    2.650544047356e-06 1.527381048072e-02 7.882714271545e-06 5.153729661942e+03
    4.320000000000e+04-3.147870302200e-07-2.676744552972e+00-1.229345798492e-07
    9.515756069550e-01 2.255937500000e+02-2.304083250384e+00-8.257129656879e-09
    4.203746531488e-10 1.000000000000e+00 2.178000000000e+03 0.000000000000e+00
    2.400000000000e+00 0.000000000000e+00-1.117587089539e-08 7.100000000000e+01
    3.600000000000e+04 4.000000000000e+00
 4 21 10  3 12  0  0.0-2.040141262114e-04 3.410605131648e-13 0.000000000000e+00
    2.300000000000e+01-4.812500000000e+01 4.163744865258e-09-2.021678333257e+00
   -2.577900886536e-06 1.415967359208e-03 1.270137727261e-05 5.153699882507e+03
    4.320000000000e+04-5.029141902924e-08 2.586587863915e+00 4.097819328308e-08
    9.610831905497e-01 1.336562500000e+02-3.090275751966e+00-7.778895450791e-09
   -1.428630936784e-12 1.000000000000e+00 2.178000000000e+03 0.000000000000e+00
    2.400000000000e+00 0.000000000000e+00-4.190951585770e-09 7.910000000000e+02
    3.600000000000e+04 4.000000000000e+00
 9 21 10  3 12  0  0.0-3.615943714976e-04-2.273736754432e-13 0.000000000000e+00
    4.400000000000e+01-6.409375000000e+01 4.438042005121e-09-1.157907721881e+00
   -3.378838300705e-06 2.227883785963e-03 1.230090856552e-05 5.153706876755e+03
    4.320000000000e+04-4.284083843231e-08 2.534738310893e+00 4.656612873077e-08
    9.539684391518e-01 1.369375000000e+02 1.810851690727e+00-7.960331579762e-09
   -6.857428496565e-11 1.000000000000e+00 2.178000000000e+03 0.000000000000e+00
    2.400000000000e+00 0.000000000000e+00 1.396983861923e-09 4.400000000000e+01
    3.600000000000e+04 4.000000000000e+00
27 21 10  3 12  0  0.0-2.012876793742e-04-5.115907697473e-12 0.000000000000e+00
    1.300000000000e+01 2.856250000000e+01 3.983737367223e-09-1.620569247123e+00
    1.300126314163e-06 9.544749627821e-03 1.124292612076e-05 5.153645835876e+03
    4.320000000000e+04 1.434236764908e-07-5.893325003384e-01-1.341104507446e-07
    9.749663211578e-01 1.685000000000e+02 6.325422449749e-01-7.622103205479e-09
   -7.821754378894e-11 1.000000000000e+00 2.178000000000e+03 0.000000000000e+00
    2.400000000000e+00 0.000000000000e+00 1.862645149231e-09 1.300000000000e+01
    3.600000000000e+04 4.000000000000e+00
22 21 10  3 12  0  0.0-4.982925020158e-04 9.208633855451e-12 0.000000000000e+00
    8.000000000000e+00-6.225000000000e+01 5.398081994640e-09-2.702251764387e+00
   -3.166496753693e-06 6.730749970302e-03 2.617016434669e-06 5.153718132019e+03
    4.320000000000e+04-7.823109626770e-08 1.401324811580e+00 1.098960638046e-07
    9.362106529773e-01 3.131875000000e+02-8.882197965483e-01-8.613573075607e-09
   -2.028655930234e-10 1.000000000000e+00 2.178000000000e+03 0.000000000000e+00
    2.400000000000e+00 0.000000000000e+00-1.769512891769e-08 8.000000000000e+00
    3.600000000000e+04 4.000000000000e+00
